[{"COMMENT":"GENERATED VIA SPACETRACK.ORG API","ORIGINATOR":"18 SPCS","NORAD_CAT_ID":"43477","OBJECT_NAME":"GRACE-FO 2","OBJECT_TYPE":"PAYLOAD","CLASSIFICATION_TYPE":"U","INTLDES":"18047B","EPOCH":"2023-09-01 14:12:53","EPOCH_MICROSECONDS":"944128","MEAN_MOTION":"15.26680576","ECCENTRICITY":"0.0016633","INCLINATION":"88.9925","RA_OF_ASC_NODE":"338.7921","ARG_OF_PERICENTER":"101.5888","MEAN_ANOMALY":"258.7229","EPHEMERIS_TYPE":"0","ELEMENT_SET_NO":"999","REV_AT_EPOCH":"29365","BSTAR":"0.00013783","MEAN_MOTION_DOT":"0.00003658","MEAN_MOTION_DDOT":"0","FILE":"3994767","TLE_LINE0":"0 GRACE-FO 2","TLE_LINE1":"1 43477U 18047B   23244.59229102  .00003658  00000-0  13783-3 0  9997","TLE_LINE2":"2 43477  88.9925 338.7921 0016633 101.5888 258.7229 15.26680576293657","OBJECT_ID":"2018-047B","OBJECT_NUMBER":"43477","SEMIMAJOR_AXIS":"6863.881","PERIOD":"94.322","APOGEE":"497.162","PERIGEE":"474.329","DECAYED":"0"},{"COMMENT":"GENERATED VIA SPACETRACK.ORG API","ORIGINATOR":"18 SPCS","NORAD_CAT_ID":"43477","OBJECT_NAME":"GRACE-FO 2","OBJECT_TYPE":"PAYLOAD","CLASSIFICATION_TYPE":"U","INTLDES":"18047B","EPOCH":"2023-09-01 20:30:27","EPOCH_MICROSECONDS":"129888","MEAN_MOTION":"15.26682535","ECCENTRICITY":"0.0016643","INCLINATION":"88.9924","RA_OF_ASC_NODE":"338.7566","ARG_OF_PERICENTER":"100.7491","MEAN_ANOMALY":"259.5633","EPHEMERIS_TYPE":"0","ELEMENT_SET_NO":"999","REV_AT_EPOCH":"29369","BSTAR":"0.0001374","MEAN_MOTION_DOT":"0.00003647","MEAN_MOTION_DDOT":"0","FILE":"3995056","TLE_LINE0":"0 GRACE-FO 2","TLE_LINE1":"1 43477U 18047B   23244.85448067  .00003647  00000-0  13740-3 0  9990","TLE_LINE2":"2 43477  88.9924 338.7566 0016643 100.7491 259.5633 15.26682535293692","OBJECT_ID":"2018-047B","OBJECT_NUMBER":"43477","SEMIMAJOR_AXIS":"6863.875","PERIOD":"94.322","APOGEE":"497.163","PERIGEE":"474.316","DECAYED":"0"},{"COMMENT":"GENERATED VIA SPACETRACK.ORG API","ORIGINATOR":"18 SPCS","NORAD_CAT_ID":"43477","OBJECT_NAME":"GRACE-FO 2","OBJECT_TYPE":"PAYLOAD","CLASSIFICATION_TYPE":"U","INTLDES":"18047B","EPOCH":"2023-09-02 12:14:19","EPOCH_MICROSECONDS":"978080","MEAN_MOTION":"15.26686929","ECCENTRICITY":"0.001666","INCLINATION":"88.9922","RA_OF_ASC_NODE":"338.6679","ARG_OF_PERICENTER":"98.7149","MEAN_ANOMALY":"261.5988","EPHEMERIS_TYPE":"0","ELEMENT_SET_NO":"999","REV_AT_EPOCH":"29379","BSTAR":"0.00012938","MEAN_MOTION_DOT":"0.00003437","MEAN_MOTION_DDOT":"0","FILE":"3995624","TLE_LINE0":"0 GRACE-FO 2","TLE_LINE1":"1 43477U 18047B   23245.50995345  .00003437  00000-0  12938-3 0  9994","TLE_LINE2":"2 43477  88.9922 338.6679 0016660  98.7149 261.5988 15.26686929293797","OBJECT_ID":"2018-047B","OBJECT_NUMBER":"43477","SEMIMAJOR_AXIS":"6863.862","PERIOD":"94.322","APOGEE":"497.162","PERIGEE":"474.291","DECAYED":"0"},{"COMMENT":"GENERATED VIA SPACETRACK.ORG API","ORIGINATOR":"18 SPCS","NORAD_CAT_ID":"43477","OBJECT_NAME":"GRACE-FO 2","OBJECT_TYPE":"PAYLOAD","CLASSIFICATION_TYPE":"U","INTLDES":"18047B","EPOCH":"2023-09-02 18:31:53","EPOCH_MICROSECONDS":"73984","MEAN_MOTION":"15.26689024","ECCENTRICITY":"0.0016671","INCLINATION":"88.9921","RA_OF_ASC_NODE":"338.6324","ARG_OF_PERICENTER":"97.8738","MEAN_ANOMALY":"262.4404","EPHEMERIS_TYPE":"0","ELEMENT_SET_NO":"999","REV_AT_EPOCH":"29383","BSTAR":"0.00013453","MEAN_MOTION_DOT":"0.00003572","MEAN_MOTION_DDOT":"0","FILE":"3995687","TLE_LINE0":"0 GRACE-FO 2","TLE_LINE1":"1 43477U 18047B   23245.77214206  .00003572  00000-0  13453-3 0  9996","TLE_LINE2":"2 43477  88.9921 338.6324 0016671  97.8738 262.4404 15.26689024293836","OBJECT_ID":"2018-047B","OBJECT_NUMBER":"43477","SEMIMAJOR_AXIS":"6863.855","PERIOD":"94.322","APOGEE":"497.163","PERIGEE":"474.278","DECAYED":"0"},{"COMMENT":"GENERATED VIA SPACETRACK.ORG API","ORIGINATOR":"18 SPCS","NORAD_CAT_ID":"43477","OBJECT_NAME":"GRACE-FO 2","OBJECT_TYPE":"PAYLOAD","CLASSIFICATION_TYPE":"U","INTLDES":"18047B","EPOCH":"2023-09-02 21:40:39","EPOCH_MICROSECONDS":"517824","MEAN_MOTION":"15.26693798","ECCENTRICITY":"0.0016677","INCLINATION":"88.9921","RA_OF_ASC_NODE":"338.6146","ARG_OF_PERICENTER":"97.439","MEAN_ANOMALY":"262.8755","EPHEMERIS_TYPE":"0","ELEMENT_SET_NO":"999","REV_AT_EPOCH":"29385","BSTAR":"0.00018593","MEAN_MOTION_DOT":"0.00004926","MEAN_MOTION_DDOT":"0","FILE":"3995906","TLE_LINE0":"0 GRACE-FO 2","TLE_LINE1":"1 43477U 18047B   23245.90323516  .00004926  00000-0  18593-3 0  9990","TLE_LINE2":"2 43477  88.9921 338.6146 0016677  97.4390 262.8755 15.26693798293852","OBJECT_ID":"2018-047B","OBJECT_NUMBER":"43477","SEMIMAJOR_AXIS":"6863.841","PERIOD":"94.321","APOGEE":"497.153","PERIGEE":"474.259","DECAYED":"0"},{"COMMENT":"GENERATED VIA SPACETRACK.ORG API","ORIGINATOR":"18 SPCS","NORAD_CAT_ID":"43477","OBJECT_NAME":"GRACE-FO 2","OBJECT_TYPE":"PAYLOAD","CLASSIFICATION_TYPE":"U","INTLDES":"18047B","EPOCH":"2023-09-03 13:24:32","EPOCH_MICROSECONDS":"106816","MEAN_MOTION":"15.26696535","ECCENTRICITY":"0.0016688","INCLINATION":"88.9919","RA_OF_ASC_NODE":"338.5259","ARG_OF_PERICENTER":"95.3848","MEAN_ANOMALY":"264.9305","EPHEMERIS_TYPE":"0","ELEMENT_SET_NO":"999","REV_AT_EPOCH":"29395","BSTAR":"0.00015729","MEAN_MOTION_DOT":"0.00004173","MEAN_MOTION_DDOT":"0","FILE":"3996586","TLE_LINE0":"0 GRACE-FO 2","TLE_LINE1":"1 43477U 18047B   23246.55870494  .00004173  00000-0  15729-3 0  9996","TLE_LINE2":"2 43477  88.9919 338.5259 0016688  95.3848 264.9305 15.26696535293957","OBJECT_ID":"2018-047B","OBJECT_NUMBER":"43477","SEMIMAJOR_AXIS":"6863.833","PERIOD":"94.321","APOGEE":"497.152","PERIGEE":"474.243","DECAYED":"0"},{"COMMENT":"GENERATED VIA SPACETRACK.ORG API","ORIGINATOR":"18 SPCS","NORAD_CAT_ID":"43477","OBJECT_NAME":"GRACE-FO 2","OBJECT_TYPE":"PAYLOAD","CLASSIFICATION_TYPE":"U","INTLDES":"18047B","EPOCH":"2023-09-04 01:59:38","EPOCH_MICROSECONDS":"4864","MEAN_MOTION":"15.26699997","ECCENTRICITY":"0.0016693","INCLINATION":"88.9918","RA_OF_ASC_NODE":"338.4549","ARG_OF_PERICENTER":"93.708","MEAN_ANOMALY":"266.6078","EPHEMERIS_TYPE":"0","ELEMENT_SET_NO":"999","REV_AT_EPOCH":"29403","BSTAR":"0.00014917","MEAN_MOTION_DOT":"0.00003959","MEAN_MOTION_DDOT":"0","FILE":"3996942","TLE_LINE0":"0 GRACE-FO 2","TLE_LINE1":"1 43477U 18047B   23247.08307876  .00003959  00000-0  14917-3 0  9993","TLE_LINE2":"2 43477  88.9918 338.4549 0016693  93.7080 266.6078 15.26699997294034","OBJECT_ID":"2018-047B","OBJECT_NUMBER":"43477","SEMIMAJOR_AXIS":"6863.822","PERIOD":"94.321","APOGEE":"497.145","PERIGEE":"474.230","DECAYED":"0"},{"COMMENT":"GENERATED VIA SPACETRACK.ORG API","ORIGINATOR":"18 SPCS","NORAD_CAT_ID":"43477","OBJECT_NAME":"GRACE-FO 2","OBJECT_TYPE":"PAYLOAD","CLASSIFICATION_TYPE":"U","INTLDES":"18047B","EPOCH":"2023-09-04 13:00:20","EPOCH_MICROSECONDS":"579040","MEAN_MOTION":"15.26702455","ECCENTRICITY":"0.0016691","INCLINATION":"88.9917","RA_OF_ASC_NODE":"338.3928","ARG_OF_PERICENTER":"92.2081","MEAN_ANOMALY":"268.108","EPHEMERIS_TYPE":"0","ELEMENT_SET_NO":"999","REV_AT_EPOCH":"29410","BSTAR":"0.0001358","MEAN_MOTION_DOT":"0.00003607","MEAN_MOTION_DDOT":"0","FILE":"3997503","TLE_LINE0":"0 GRACE-FO 2","TLE_LINE1":"1 43477U 18047B   23247.54190485  .00003607  00000-0  13580-3 0  9995","TLE_LINE2":"2 43477  88.9917 338.3928 0016691  92.2081 268.1080 15.26702455294108","OBJECT_ID":"2018-047B","OBJECT_NUMBER":"43477","SEMIMAJOR_AXIS":"6863.815","PERIOD":"94.321","APOGEE":"497.136","PERIGEE":"474.224","DECAYED":"0"},{"COMMENT":"GENERATED VIA SPACETRACK.ORG API","ORIGINATOR":"18 SPCS","NORAD_CAT_ID":"43477","OBJECT_NAME":"GRACE-FO 2","OBJECT_TYPE":"PAYLOAD","CLASSIFICATION_TYPE":"U","INTLDES":"18047B","EPOCH":"2023-09-05 04:44:12","EPOCH_MICROSECONDS":"671232","MEAN_MOTION":"15.26706714","ECCENTRICITY":"0.0016669","INCLINATION":"88.9915","RA_OF_ASC_NODE":"338.3039","ARG_OF_PERICENTER":"90.0393","MEAN_ANOMALY":"270.2766","EPHEMERIS_TYPE":"0","ELEMENT_SET_NO":"999","REV_AT_EPOCH":"29420","BSTAR":"0.00012879","MEAN_MOTION_DOT":"0.00003423","MEAN_MOTION_DDOT":"0","FILE":"3997887","TLE_LINE0":"0 GRACE-FO 2","TLE_LINE1":"1 43477U 18047B   23248.19736888  .00003423  00000-0  12879-3 0  9996","TLE_LINE2":"2 43477  88.9915 338.3039 0016669  90.0393 270.2766 15.26706714294204","OBJECT_ID":"2018-047B","OBJECT_NUMBER":"43477","SEMIMAJOR_AXIS":"6863.802","PERIOD":"94.321","APOGEE":"497.109","PERIGEE":"474.226","DECAYED":"0"},{"COMMENT":"GENERATED VIA SPACETRACK.ORG API","ORIGINATOR":"18 SPCS","NORAD_CAT_ID":"43477","OBJECT_NAME":"GRACE-FO 2","OBJECT_TYPE":"PAYLOAD","CLASSIFICATION_TYPE":"U","INTLDES":"18047B","EPOCH":"2023-09-05 14:10:31","EPOCH_MICROSECONDS":"851552","MEAN_MOTION":"15.26709036","ECCENTRICITY":"0.0016663","INCLINATION":"88.9915","RA_OF_ASC_NODE":"338.2506","ARG_OF_PERICENTER":"88.8038","MEAN_ANOMALY":"271.512","EPHEMERIS_TYPE":"0","ELEMENT_SET_NO":"999","REV_AT_EPOCH":"29426","BSTAR":"0.00012636","MEAN_MOTION_DOT":"0.00003359","MEAN_MOTION_DDOT":"0","FILE":"3998343","TLE_LINE0":"0 GRACE-FO 2","TLE_LINE1":"1 43477U 18047B   23248.59064643  .00003359  00000-0  12636-3 0  9992","TLE_LINE2":"2 43477  88.9915 338.2506 0016663  88.8038 271.5120 15.26709036294261","OBJECT_ID":"2018-047B","OBJECT_NUMBER":"43477","SEMIMAJOR_AXIS":"6863.795","PERIOD":"94.321","APOGEE":"497.097","PERIGEE":"474.223","DECAYED":"0"}]